STARLINK-32592          
1 62035U 24216D   26068.90500208  .00027338  00000+0  99861-3 0  9995
2 62035  43.0007 262.4547 0001775 283.7388  76.3266 15.27601841 73837
FLOCK 4G-1              
1 62666U 25009BK  26068.75951133  .00013534  00000+0  50654-3 0  9996
2 62666  97.4059 151.3158 0003180 323.1401  36.9619 15.27421081 63725
